{
  "type": "FeatureCollection",
  "features": [
    {
      "type": "Feature",
      "properties": {
        "norad_id": 64751,
        "name": "PROGRESS-MS 31",
        "group": "stations",
        "lat": 48.39574042545196,
        "lon": 131.81342570278463,
        "alt_km": 411.5841755306428,
        "timestamp": "2025-12-27T15:27:09.866810+00:00",
        "meta_object_name": "PROGRESS-MS 31",
        "meta_object_id": "2025-146A",
        "meta_epoch": "2025-12-27T04:18:31.505184",
        "meta_mean_motion": 15.49864323,
        "meta_eccentricity": 0.00032283,
        "meta_inclination": 51.6319,
        "meta_ra_of_asc_node": 70.9638,
        "meta_arg_of_pericenter": 308.9173,
        "meta_mean_anomaly": 51.1527,
        "meta_ephemeris_type": 0,
        "meta_classification_type": "U",
        "meta_norad_cat_id": 64751,
        "meta_element_set_no": 999,
        "meta_rev_at_epoch": 675,
        "meta_bstar": 0.0002516974,
        "meta_mean_motion_dot": 0.00013867,
        "meta_mean_motion_ddot": 0,
        "tle_line1": "1 64751U 25146A   25361.17953131  .00013867  00000+0  25170-3 0  9990",
        "tle_line2": "2 64751  51.6319  70.9638 0003228 308.9173  51.1527 15.49864323  6753"
      },
      "geometry": {
        "type": "Point",
        "coordinates": [
          131.81342570278463,
          48.39574042545196
        ]
      }
    },
    {
      "type": "Feature",
      "properties": {
        "norad_id": 64786,
        "name": "TIANZHOU-9",
        "group": "stations",
        "lat": 27.19631213036992,
        "lon": -38.23306895084681,
        "alt_km": 386.5111600003074,
        "timestamp": "2025-12-27T15:27:09.866821+00:00",
        "meta_object_name": "TIANZHOU-9",
        "meta_object_id": "2025-149A",
        "meta_epoch": "2025-12-27T06:02:45.823200",
        "meta_mean_motion": 15.59750285,
        "meta_eccentricity": 0.0008745,
        "meta_inclination": 41.4675,
        "meta_ra_of_asc_node": 288.5662,
        "meta_arg_of_pericenter": 157.7703,
        "meta_mean_anomaly": 202.3516,
        "meta_ephemeris_type": 0,
        "meta_classification_type": "U",
        "meta_norad_cat_id": 64786,
        "meta_element_set_no": 999,
        "meta_rev_at_epoch": 25530,
        "meta_bstar": 0.00024488937,
        "meta_mean_motion_dot": 0.0001992,
        "meta_mean_motion_ddot": 0,
        "tle_line1": "1 64786U 25149A   25361.25191925  .00019920  00000+0  24489-3 0  9993",
        "tle_line2": "2 64786  41.4675 288.5662 0008745 157.7703 202.3516 15.59750285255302"
      },
      "geometry": {
        "type": "Point",
        "coordinates": [
          -38.23306895084681,
          27.19631213036992
        ]
      }
    },
    {
      "type": "Feature",
      "properties": {
        "norad_id": 65077,
        "name": "CREW DRAGON 11",
        "group": "stations",
        "lat": 48.39574090642234,
        "lon": 131.81342761528464,
        "alt_km": 411.5841755059919,
        "timestamp": "2025-12-27T15:27:09.866831+00:00",
        "meta_object_name": "CREW DRAGON 11",
        "meta_object_id": "2025-166A",
        "meta_epoch": "2025-12-27T04:18:31.505184",
        "meta_mean_motion": 15.49864323,
        "meta_eccentricity": 0.00032283,
        "meta_inclination": 51.6319,
        "meta_ra_of_asc_node": 70.9638,
        "meta_arg_of_pericenter": 308.9173,
        "meta_mean_anomaly": 51.1527,
        "meta_ephemeris_type": 0,
        "meta_classification_type": "U",
        "meta_norad_cat_id": 65077,
        "meta_element_set_no": 999,
        "meta_rev_at_epoch": 214,
        "meta_bstar": 0.0002516974,
        "meta_mean_motion_dot": 0.00013867,
        "meta_mean_motion_ddot": 0,
        "tle_line1": "1 65077U 25166A   25361.17953131  .00013867  00000+0  25170-3 0  9994",
        "tle_line2": "2 65077  51.6319  70.9638 0003228 308.9173  51.1527 15.49864323  2144"
      },
      "geometry": {
        "type": "Point",
        "coordinates": [
          131.81342761528464,
          48.39574090642234
        ]
      }
    },
    {
      "type": "Feature",
      "properties": {
        "norad_id": 65304,
        "name": "DRAGON CRS-33",
        "group": "stations",
        "lat": 48.39574124997315,
        "lon": 131.81342898135836,
        "alt_km": 411.58417548838406,
        "timestamp": "2025-12-27T15:27:09.866846+00:00",
        "meta_object_name": "DRAGON CRS-33",
        "meta_object_id": "2025-186A",
        "meta_epoch": "2025-12-27T04:18:31.505184",
        "meta_mean_motion": 15.49864323,
        "meta_eccentricity": 0.00032283,
        "meta_inclination": 51.6319,
        "meta_ra_of_asc_node": 70.9638,
        "meta_arg_of_pericenter": 308.9173,
        "meta_mean_anomaly": 51.1527,
        "meta_ephemeris_type": 0,
        "meta_classification_type": "U",
        "meta_norad_cat_id": 65304,
        "meta_element_set_no": 999,
        "meta_rev_at_epoch": 11,
        "meta_bstar": 0.0002516974,
        "meta_mean_motion_dot": 0.00013867,
        "meta_mean_motion_ddot": 0,
        "tle_line1": "1 65304U 25186A   25361.17953131  .00013867  00000+0  25170-3 0  9999",
        "tle_line2": "2 65304  51.6319  70.9638 0003228 308.9173  51.1527 15.49864323   112"
      },
      "geometry": {
        "type": "Point",
        "coordinates": [
          131.81342898135836,
          48.39574124997315
        ]
      }
    },
    {
      "type": "Feature",
      "properties": {
        "norad_id": 65586,
        "name": "PROGRESS-MS 32",
        "group": "stations",
        "lat": 48.39574147900652,
        "lon": 131.81342989207224,
        "alt_km": 411.5841754766425,
        "timestamp": "2025-12-27T15:27:09.866856+00:00",
        "meta_object_name": "PROGRESS-MS 32",
        "meta_object_id": "2025-204A",
        "meta_epoch": "2025-12-27T04:18:31.505184",
        "meta_mean_motion": 15.49864323,
        "meta_eccentricity": 0.00032283,
        "meta_inclination": 51.6319,
        "meta_ra_of_asc_node": 70.9638,
        "meta_arg_of_pericenter": 308.9173,
        "meta_mean_anomaly": 51.1527,
        "meta_ephemeris_type": 0,
        "meta_classification_type": "U",
        "meta_norad_cat_id": 65586,
        "meta_element_set_no": 999,
        "meta_rev_at_epoch": 27,
        "meta_bstar": 0.0002516974,
        "meta_mean_motion_dot": 0.00013867,
        "meta_mean_motion_ddot": 0,
        "tle_line1": "1 65586U 25204A   25361.17953131  .00013867  00000+0  25170-3 0  9992",
        "tle_line2": "2 65586  51.6319  70.9638 0003228 308.9173  51.1527 15.49864323   271"
      },
      "geometry": {
        "type": "Point",
        "coordinates": [
          131.81342989207224,
          48.39574147900652
        ]
      }
    },
    {
      "type": "Feature",
      "properties": {
        "norad_id": 65616,
        "name": "CYGNUS NG-23",
        "group": "stations",
        "lat": 48.3957417309436,
        "lon": 131.813430893859,
        "alt_km": 411.5841754637295,
        "timestamp": "2025-12-27T15:27:09.866867+00:00",
        "meta_object_name": "CYGNUS NG-23",
        "meta_object_id": "2025-208A",
        "meta_epoch": "2025-12-27T04:18:31.505184",
        "meta_mean_motion": 15.49864323,
        "meta_eccentricity": 0.00032283,
        "meta_inclination": 51.6319,
        "meta_ra_of_asc_node": 70.9638,
        "meta_arg_of_pericenter": 308.9173,
        "meta_mean_anomaly": 51.1527,
        "meta_ephemeris_type": 0,
        "meta_classification_type": "U",
        "meta_norad_cat_id": 65616,
        "meta_element_set_no": 999,
        "meta_rev_at_epoch": 22,
        "meta_bstar": 0.0002516974,
        "meta_mean_motion_dot": 0.00013867,
        "meta_mean_motion_ddot": 0,
        "tle_line1": "1 65616U 25208A   25361.17953131  .00013867  00000+0  25170-3 0  9990",
        "tle_line2": "2 65616  51.6319  70.9638 0003228 308.9173  51.1527 15.49864323   220"
      },
      "geometry": {
        "type": "Point",
        "coordinates": [
          131.813430893859,
          48.3957417309436
        ]
      }
    },
    {
      "type": "Feature",
      "properties": {
        "norad_id": 65729,
        "name": "DRAGONFLY",
        "group": "stations",
        "lat": -41.593974976188875,
        "lon": 14.44962530584204,
        "alt_km": 339.5499569857302,
        "timestamp": "2025-12-27T15:27:09.866878+00:00",
        "meta_object_name": "DRAGONFLY",
        "meta_object_id": "1998-067XH",
        "meta_epoch": "2025-12-27T05:03:10.580832",
        "meta_mean_motion": 15.77161756,
        "meta_eccentricity": 0.00083257,
        "meta_inclination": 51.6248,
        "meta_ra_of_asc_node": 61.3905,
        "meta_arg_of_pericenter": 2.5372,
        "meta_mean_anomaly": 357.5669,
        "meta_ephemeris_type": 0,
        "meta_classification_type": "U",
        "meta_norad_cat_id": 65729,
        "meta_element_set_no": 999,
        "meta_rev_at_epoch": 1544,
        "meta_bstar": 0.0013635881,
        "meta_mean_motion_dot": 0.00233999,
        "meta_mean_motion_ddot": 0,
        "tle_line1": "1 65729U 98067XH  25361.21053913  .00233999  00000+0  13636-2 0  9995",
        "tle_line2": "2 65729  51.6248  61.3905 0008325   2.5372 357.5669 15.77161756 15449"
      },
      "geometry": {
        "type": "Point",
        "coordinates": [
          14.44962530584204,
          -41.593974976188875
        ]
      }
    }
  ]
}